     2.100          NAVIGATION                              RINEX VERSION / TYPE
fic2rin                                 11/24/2015 00:29:46 PGM / RUN BY / DATE
                                                            END OF HEADER
31 15 11 24  0  0  0.0  .294064637274D-03 -.159161572810D-11  .000000000000D+00
     .420000000000D+02  .291250000000D+02  .476341270097D-08  .961127331177D+00
     .139698386192D-05  .827961484902D-02  .489875674248D-06  .515363684464D+04
     .172800000000D+06  .113621354103D-06 -.201616955431D+01  .111758708954D-07
     .973107847585D+00  .371718750000D+03 -.496400600095D+00 -.859000066515D-08
    -.264296723305D-10  .100000000000D+01  .187200000000D+04  .000000000000D+00
     .240000000000D+01  .000000000000D+00 -.135041773319D-07  .420000000000D+02
     .165606000000D+06  .400000000000D+01
32 15 11 24  0  0  0.0  .264006666839D-04  .119371179608D-10  .000000000000D+00
     .100000000000D+03 -.346250000000D+02  .481448625696D-08  .136371816900D+01
    -.182911753654D-05  .113661558134D-01  .108517706394D-04  .515365314674D+04
     .172800000000D+06 -.121071934700D-06  .221980953863D+01  .147148966789D-06
     .946714322863D+00  .165000000000D+03  .181608888625D+00 -.810283751571D-08
    -.702886420898D-09  .100000000000D+01  .187200000000D+04  .000000000000D+00
     .240000000000D+01  .000000000000D+00 -.325962901115D-08  .100000000000D+03
     .165606000000D+06  .400000000000D+01
29 15 11 23 23 59 44.0  .645628198981D-03  .147792889038D-11  .000000000000D+00
     .300000000000D+01  .993750000000D+01  .402409619119D-08  .390718077033D-01
     .482425093651D-06  .877477345057D-03  .123642385006D-04  .515366045189D+04
     .172784000000D+06  .596046447754D-07  .999457015168D-01  .931322574615D-08
     .975656587350D+00  .150343750000D+03 -.550484789741D+00 -.773353641855D-08
     .581452791271D-09  .100000000000D+01  .187200000000D+04  .000000000000D+00
     .240000000000D+01  .000000000000D+00 -.102445483208D-07  .300000000000D+01
     .166506000000D+06  .400000000000D+01
22 15 11 23 23 59 44.0  .413283240050D-03  .352429196937D-11  .000000000000D+00
     .460000000000D+02 -.478750000000D+02  .545451291664D-08 -.142947734900D+01
    -.238977372646D-05  .799754553009D-02  .100359320641D-04  .515366931915D+04
     .172784000000D+06  .188127160072D-06  .211460926505D+01  .856816768646D-07
     .922612725563D+00  .162250000000D+03 -.204961369903D+01 -.843070831570D-08
    -.614311302817D-09  .100000000000D+01  .187200000000D+04  .000000000000D+00
     .240000000000D+01  .000000000000D+00 -.176951289177D-07  .460000000000D+02
     .166986000000D+06  .400000000000D+01
24 15 11 23 23 59 44.0 -.835768878460D-05 -.454747350886D-12  .000000000000D+00
     .110000000000D+02  .376562500000D+02  .531379276937D-08  .193968544976D+01
     .200979411602D-05  .376429606695D-02  .584870576859D-06  .515364558792D+04
     .172784000000D+06 -.113621354103D-06 -.206870558603D+01  .987201929092D-07
     .951425047815D+00  .362468750000D+03  .299061440515D+00 -.886251201634D-08
     .792890169915D-10  .100000000000D+01  .187200000000D+04  .000000000000D+00
     .240000000000D+01  .000000000000D+00  .279396772385D-08  .110000000000D+02
     .169896000000D+06  .400000000000D+01
